{
  "links" : {
    "next" : "https://api.nasa.gov/neo/rest/v1/feed?start_date=2008-08-09&end_date=2008-08-09&detailed=true&api_key=t0TVs3DtDT2H8Oy2Zy8m2eVrNsAVKAexjcZXUckd",
    "prev" : "https://api.nasa.gov/neo/rest/v1/feed?start_date=2008-08-07&end_date=2008-08-07&detailed=true&api_key=t0TVs3DtDT2H8Oy2Zy8m2eVrNsAVKAexjcZXUckd",
    "self" : "https://api.nasa.gov/neo/rest/v1/feed?start_date=2008-08-08&end_date=2008-08-08&detailed=true&api_key=t0TVs3DtDT2H8Oy2Zy8m2eVrNsAVKAexjcZXUckd"
  },
  "element_count" : 9,
  "near_earth_objects" : {
    "2008-08-08" : [ {
      "links" : {
        "self" : "https://api.nasa.gov/neo/rest/v1/neo/3645088?api_key=t0TVs3DtDT2H8Oy2Zy8m2eVrNsAVKAexjcZXUckd"
      },
      "neo_reference_id" : "3645088",
      "name" : "(2013 OH)",
      "nasa_jpl_url" : "http://ssd.jpl.nasa.gov/sbdb.cgi?sstr=3645088",
      "absolute_magnitude_h" : 21.2,
      "estimated_diameter" : {
        "kilometers" : {
          "estimated_diameter_min" : 0.1529519353,
          "estimated_diameter_max" : 0.3420109247
        },
        "meters" : {
          "estimated_diameter_min" : 152.9519353442,
          "estimated_diameter_max" : 342.0109247198
        },
        "miles" : {
          "estimated_diameter_min" : 0.095039897,
          "estimated_diameter_max" : 0.2125156703
        },
        "feet" : {
          "estimated_diameter_min" : 501.8108275547,
          "estimated_diameter_max" : 1122.0831222578
        }
      },
      "is_potentially_hazardous_asteroid" : false,
      "close_approach_data" : [ {
        "close_approach_date" : "2008-08-08",
        "epoch_date_close_approach" : 1218178800000,
        "relative_velocity" : {
          "kilometers_per_second" : "24.2157295152",
          "kilometers_per_hour" : "87176.6262546772",
          "miles_per_hour" : "54168.1653525243"
        },
        "miss_distance" : {
          "astronomical" : "0.2228335641",
          "lunar" : "86.6822509766",
          "kilometers" : "33335426",
          "miles" : "20713674"
        },
        "orbiting_body" : "Earth"
      } ],
      "orbital_data" : {
        "orbit_id" : "25",
        "orbit_determination_date" : "2017-04-06 08:45:19",
        "orbit_uncertainty" : "6",
        "minimum_orbit_intersection" : ".0772905",
        "jupiter_tisserand_invariant" : "3.722",
        "epoch_osculation" : "2458000.5",
        "eccentricity" : ".645558536527456",
        "semi_major_axis" : "1.848130611418522",
        "inclination" : "5.060536235781138",
        "ascending_node_longitude" : "207.8088853738873",
        "orbital_period" : "917.692997113462",
        "perihelion_distance" : ".6550541185995885",
        "perihelion_argument" : "203.590157159993",
        "aphelion_distance" : "3.041207104237456",
        "perihelion_time" : "2458407.085103818519",
        "mean_anomaly" : "200.5015208407765",
        "mean_motion" : ".3922880539922985",
        "equinox" : "J2000"
      }
    }, {
      "links" : {
        "self" : "https://api.nasa.gov/neo/rest/v1/neo/2367390?api_key=t0TVs3DtDT2H8Oy2Zy8m2eVrNsAVKAexjcZXUckd"
      },
      "neo_reference_id" : "2367390",
      "name" : "367390 (2008 MB5)",
      "nasa_jpl_url" : "http://ssd.jpl.nasa.gov/sbdb.cgi?sstr=2367390",
      "absolute_magnitude_h" : 19.1,
      "estimated_diameter" : {
        "kilometers" : {
          "estimated_diameter_min" : 0.4023045798,
          "estimated_diameter_max" : 0.8995803882
        },
        "meters" : {
          "estimated_diameter_min" : 402.3045798343,
          "estimated_diameter_max" : 899.5803881691
        },
        "miles" : {
          "estimated_diameter_min" : 0.2499803991,
          "estimated_diameter_max" : 0.5589731654
        },
        "feet" : {
          "estimated_diameter_min" : 1319.8969577037,
          "estimated_diameter_max" : 2951.3793207207
        }
      },
      "is_potentially_hazardous_asteroid" : false,
      "close_approach_data" : [ {
        "close_approach_date" : "2008-08-08",
        "epoch_date_close_approach" : 1218178800000,
        "relative_velocity" : {
          "kilometers_per_second" : "12.3548435594",
          "kilometers_per_hour" : "44477.4368140078",
          "miles_per_hour" : "27636.5495581261"
        },
        "miss_distance" : {
          "astronomical" : "0.1997298109",
          "lunar" : "77.6949005127",
          "kilometers" : "29879156",
          "miles" : "18566046"
        },
        "orbiting_body" : "Earth"
      } ],
      "orbital_data" : {
        "orbit_id" : "38",
        "orbit_determination_date" : "2017-04-06 09:22:36",
        "orbit_uncertainty" : "0",
        "minimum_orbit_intersection" : ".135843",
        "jupiter_tisserand_invariant" : "4.559",
        "epoch_osculation" : "2458000.5",
        "eccentricity" : ".3640283768619405",
        "semi_major_axis" : "1.427668455099822",
        "inclination" : "20.40291321821724",
        "ascending_node_longitude" : "115.2385786527509",
        "orbital_period" : "623.0737751962168",
        "perihelion_distance" : ".9079566246928398",
        "perihelion_argument" : "278.5902747331319",
        "aphelion_distance" : "1.947380285506805",
        "perihelion_time" : "2457873.534192131965",
        "mean_anomaly" : "73.35839294166811",
        "mean_motion" : ".5777806968149634",
        "equinox" : "J2000"
      }
    }, {
      "links" : {
        "self" : "https://api.nasa.gov/neo/rest/v1/neo/3175328?api_key=t0TVs3DtDT2H8Oy2Zy8m2eVrNsAVKAexjcZXUckd"
      },
      "neo_reference_id" : "3175328",
      "name" : "(2004 CE39)",
      "nasa_jpl_url" : "http://ssd.jpl.nasa.gov/sbdb.cgi?sstr=3175328",
      "absolute_magnitude_h" : 21.4,
      "estimated_diameter" : {
        "kilometers" : {
          "estimated_diameter_min" : 0.1394938229,
          "estimated_diameter_max" : 0.3119176705
        },
        "meters" : {
          "estimated_diameter_min" : 139.4938229344,
          "estimated_diameter_max" : 311.9176705226
        },
        "miles" : {
          "estimated_diameter_min" : 0.0866774163,
          "estimated_diameter_max" : 0.1938165949
        },
        "feet" : {
          "estimated_diameter_min" : 457.6569140361,
          "estimated_diameter_max" : 1023.3519701574
        }
      },
      "is_potentially_hazardous_asteroid" : false,
      "close_approach_data" : [ {
        "close_approach_date" : "2008-08-08",
        "epoch_date_close_approach" : 1218178800000,
        "relative_velocity" : {
          "kilometers_per_second" : "15.9881174683",
          "kilometers_per_hour" : "57557.2228859567",
          "miles_per_hour" : "35763.8199648879"
        },
        "miss_distance" : {
          "astronomical" : "0.3622023758",
          "lunar" : "140.8967285156",
          "kilometers" : "54184704",
          "miles" : "33668816"
        },
        "orbiting_body" : "Earth"
      } ],
      "orbital_data" : {
        "orbit_id" : "25",
        "orbit_determination_date" : "2017-04-06 09:13:10",
        "orbit_uncertainty" : "2",
        "minimum_orbit_intersection" : ".0781464",
        "jupiter_tisserand_invariant" : "5.845",
        "epoch_osculation" : "2458000.5",
        "eccentricity" : ".3913111970318248",
        "semi_major_axis" : "1.027208608418418",
        "inclination" : "17.70798528407041",
        "ascending_node_longitude" : "153.2475230271902",
        "orbital_period" : "380.2650420305567",
        "perihelion_distance" : ".6252503782568122",
        "perihelion_argument" : "126.0857325811944",
        "aphelion_distance" : "1.429166838580025",
        "perihelion_time" : "2458088.091445735072",
        "mean_anomaly" : "277.0764677808798",
        "mean_motion" : ".9467081119990822",
        "equinox" : "J2000"
      }
    } ]
  }
}